[{"OBJECT_NAME":"STARLINK-30886","OBJECT_ID":"2023-171S","EPOCH":"2026-03-09T22:00:01.999584","MEAN_MOTION":15.22897038,"ECCENTRICITY":0.00015613,"INCLINATION":43.0007,"RA_OF_ASC_NODE":283.7757,"ARG_OF_PERICENTER":289.0985,"MEAN_ANOMALY":343.9345,"EPHEMERIS_TYPE":0,"CLASSIFICATION_TYPE":"U","NORAD_CAT_ID":58246,"ELEMENT_SET_NO":999,"REV_AT_EPOCH":577,"BSTAR":0.048414578,"MEAN_MOTION_DOT":0.01267662,"MEAN_MOTION_DDOT":0},{"OBJECT_NAME":"SHIYAN-32 03","OBJECT_ID":"2025-255D","EPOCH":"2026-03-09T22:33:08.924832","MEAN_MOTION":15.40310528,"ECCENTRICITY":0.00080763,"INCLINATION":52.9948,"RA_OF_ASC_NODE":125.0183,"ARG_OF_PERICENTER":220.5672,"MEAN_ANOMALY":139.473,"EPHEMERIS_TYPE":0,"CLASSIFICATION_TYPE":"U","NORAD_CAT_ID":66379,"ELEMENT_SET_NO":999,"REV_AT_EPOCH":1867,"BSTAR":0.00040194929,"MEAN_MOTION_DOT":0.00016094,"MEAN_MOTION_DDOT":0}]
